{
    "links": {
        "self": "http://www.neowsapp.com/rest/v1/neo/54065909?api_key=iIulBulltgU6a56xZRHN4H3l9WmuAYTsLGpBGhQ2"
    },
    "id": "54065909",
    "neo_reference_id": "54065909",
    "name": "(2020 TA6)",
    "designation": "2020 TA6",
    "nasa_jpl_url": "http://ssd.jpl.nasa.gov/sbdb.cgi?sstr=54065909",
    "absolute_magnitude_h": 26.567,
    "estimated_diameter": {
        "kilometers": {
            "estimated_diameter_min": 0.0129168012,
            "estimated_diameter_max": 0.0288828456
        },
        "meters": {
            "estimated_diameter_min": 12.9168012333,
            "estimated_diameter_max": 28.8828456096
        },
        "miles": {
            "estimated_diameter_min": 0.0080261257,
            "estimated_diameter_max": 0.0179469627
        },
        "feet": {
            "estimated_diameter_min": 42.3779581583,
            "estimated_diameter_max": 94.7599951897
        }
    },
    "is_potentially_hazardous_asteroid": false,
    "close_approach_data": [
        {
            "close_approach_date": "2020-10-11",
            "close_approach_date_full": "2020-Oct-11 04:49",
            "epoch_date_close_approach": 1602391740000,
            "relative_velocity": {
                "kilometers_per_second": "13.5649149016",
                "kilometers_per_hour": "48833.6936456455",
                "miles_per_hour": "30343.3581433179"
            },
            "miss_distance": {
                "astronomical": "0.0210725171",
                "lunar": "8.1972091519",
                "kilometers": "3152403.673698577",
                "miles": "1958812.8114792826"
            },
            "orbiting_body": "Earth"
        },
        {
            "close_approach_date": "2023-01-01",
            "close_approach_date_full": "2023-Jan-01 22:32",
            "epoch_date_close_approach": 1672612320000,
            "relative_velocity": {
                "kilometers_per_second": "5.9479592953",
                "kilometers_per_hour": "21412.6534630933",
                "miles_per_hour": "13304.9901476648"
            },
            "miss_distance": {
                "astronomical": "0.1214073607",
                "lunar": "47.2274633123",
                "kilometers": "18162282.563041709",
                "miles": "11285519.0682012242"
            },
            "orbiting_body": "Venus"
        }
    ],
    "orbital_data": {
        "orbit_id": "2",
        "orbit_determination_date": "2020-10-19 08:22:15",
        "first_observation_date": "2020-10-14",
        "last_observation_date": "2020-10-19",
        "data_arc_in_days": 5,
        "observations_used": 16,
        "orbit_uncertainty": "8",
        "minimum_orbit_intersection": ".0155699",
        "jupiter_tisserand_invariant": "3.944",
        "epoch_osculation": "2459137.5",
        "eccentricity": ".5210316577330062",
        "semi_major_axis": "1.759275854637308",
        "inclination": "6.483824014870792",
        "ascending_node_longitude": "24.33063723459012",
        "orbital_period": "852.3134466244928",
        "perihelion_distance": ".8426374396859799",
        "perihelion_argument": "294.6150363255042",
        "aphelion_distance": "2.675914269588635",
        "perihelion_time": "2459091.727107450740",
        "mean_anomaly": "19.33354610676873",
        "mean_motion": ".4223798198019122",
        "equinox": "J2000",
        "orbit_class": {
            "orbit_class_type": "APO",
            "orbit_class_description": "Near-Earth asteroid orbits which cross the Earth’s orbit similar to that of 1862 Apollo",
            "orbit_class_range": "a (semi-major axis) > 1.0 AU; q (perihelion) < 1.017 AU"
        }
    },
    "is_sentry_object": false
}